start=new Date('2022-10-30T00:00:00.000Z').valueOf();
sats=[{"NORAD_CAT_ID":"51118","REV_AT_EPOCH":"4363","MEAN_ELEMENT_THEORY":"SGP4","CENTER_NAME":"EARTH","ARG_OF_PERICENTER":"39.7782","PERIOD":"95.437","FILE":"3637863","OBJECT_TYPE":"PAYLOAD","LAUNCH_DATE":"2022-01-19","MEAN_MOTION":"15.08852011","REF_FRAME":"TEME","ELEMENT_SET_NO":"999","SEMIMAJOR_AXIS":"6917.844","RA_OF_ASC_NODE":"37.4972","EPHEMERIS_TYPE":"0","SITE":"AFETR","TLE_LINE2":"2 51118  53.2180  37.4972 0002151  39.7782 320.3368 15.08852011 43636","EPOCH":"2022-10-29T15:40:37.916832","MEAN_ANOMALY":"320.3368","APOAPSIS":"541.197","GP_ID":"216477283","MEAN_MOTION_DDOT":"0.0000000000000","MEAN_MOTION_DOT":"0.00002968","OBJECT_NAME":"STARLINK-3394","COUNTRY_CODE":"US","DECAY_DATE":null,"ECCENTRICITY":"0.00021510","TLE_LINE1":"1 51118U 22005Q   22302.65321663  .00002968  00000-0  20442-3 0  9996","OBJECT_ID":"2022-005Q","BSTAR":"0.00020442000000","PERIAPSIS":"538.221","RCS_SIZE":"LARGE","INCLINATION":"53.2180","CLASSIFICATION_TYPE":"U","TIME_SYSTEM":"UTC"},{"SITE":"AFETR","EPHEMERIS_TYPE":"0","SEMIMAJOR_AXIS":"6917.851","RA_OF_ASC_NODE":"37.3163","ELEMENT_SET_NO":"999","GP_ID":"216477533","APOAPSIS":"541.304","TLE_LINE2":"2 51119  53.2182  37.3163 0002295  36.4735 323.6413 15.08849461 43644","MEAN_ANOMALY":"323.6413","EPOCH":"2022-10-29T16:44:13.072128","ECCENTRICITY":"0.00022950","TLE_LINE1":"1 51119U 22005R   22302.69737352  .00001068  00000-0  85181-4 0  9999","DECAY_DATE":null,"COUNTRY_CODE":"US","MEAN_MOTION_DOT":"0.00001068","OBJECT_NAME":"STARLINK-3390","MEAN_MOTION_DDOT":"0.0000000000000","TIME_SYSTEM":"UTC","CLASSIFICATION_TYPE":"U","RCS_SIZE":"LARGE","INCLINATION":"53.2182","BSTAR":"0.00008518100000","OBJECT_ID":"2022-005R","PERIAPSIS":"538.129","MEAN_ELEMENT_THEORY":"SGP4","REV_AT_EPOCH":"4364","NORAD_CAT_ID":"51119","PERIOD":"95.437","ARG_OF_PERICENTER":"36.4735","CENTER_NAME":"EARTH","OBJECT_TYPE":"PAYLOAD","FILE":"3637863","REF_FRAME":"TEME","LAUNCH_DATE":"2022-01-19","MEAN_MOTION":"15.08849461"},{"CLASSIFICATION_TYPE":"U","TIME_SYSTEM":"UTC","PERIAPSIS":"538.154","OBJECT_ID":"2022-005S","BSTAR":"0.00007645500000","INCLINATION":"53.2180","RCS_SIZE":"LARGE","DECAY_DATE":null,"COUNTRY_CODE":"US","TLE_LINE1":"1 51120U 22005S   22302.62377537  .00000929  00000-0  76455-4 0  9998","ECCENTRICITY":"0.00022680","MEAN_MOTION_DDOT":"0.0000000000000","OBJECT_NAME":"STARLINK-3398","MEAN_MOTION_DOT":"0.00000929","GP_ID":"216478785","MEAN_ANOMALY":"323.7402","EPOCH":"2022-10-29T14:58:14.191968","TLE_LINE2":"2 51120  53.2180  37.6456 0002268  36.3744 323.7402 15.08847289 43635","APOAPSIS":"541.292","EPHEMERIS_TYPE":"0","SITE":"AFETR","ELEMENT_SET_NO":"999","RA_OF_ASC_NODE":"37.6456","SEMIMAJOR_AXIS":"6917.858","REF_FRAME":"TEME","MEAN_MOTION":"15.08847289","LAUNCH_DATE":"2022-01-19","FILE":"3637863","OBJECT_TYPE":"PAYLOAD","PERIOD":"95.437","CENTER_NAME":"EARTH","ARG_OF_PERICENTER":"36.3744","MEAN_ELEMENT_THEORY":"SGP4","NORAD_CAT_ID":"51120","REV_AT_EPOCH":"4363"},{"MEAN_MOTION":"15.08849636","LAUNCH_DATE":"2022-01-19","REF_FRAME":"TEME","OBJECT_TYPE":"PAYLOAD","FILE":"3637863","ARG_OF_PERICENTER":"36.5979","CENTER_NAME":"EARTH","PERIOD":"95.437","REV_AT_EPOCH":"4363","NORAD_CAT_ID":"51121","MEAN_ELEMENT_THEORY":"SGP4","INCLINATION":"53.2187","RCS_SIZE":"LARGE","PERIAPSIS":"538.093","BSTAR":"0.00007725300000","OBJECT_ID":"2022-005T","TIME_SYSTEM":"UTC","CLASSIFICATION_TYPE":"U","OBJECT_NAME":"STARLINK-3399","MEAN_MOTION_DOT":"0.00000942","MEAN_MOTION_DDOT":"0.0000000000000","TLE_LINE1":"1 51121U 22005T   22302.63849499  .00000942  00000-0  77253-4 0  9993","ECCENTRICITY":"0.00023460","DECAY_DATE":null,"COUNTRY_CODE":"US","APOAPSIS":"541.339","MEAN_ANOMALY":"323.5173","EPOCH":"2022-10-29T15:19:25.967136","TLE_LINE2":"2 51121  53.2187  37.5556 0002346  36.5979 323.5173 15.08849636 43633","GP_ID":"216479015","SEMIMAJOR_AXIS":"6917.851","RA_OF_ASC_NODE":"37.5556","ELEMENT_SET_NO":"999","SITE":"AFETR","EPHEMERIS_TYPE":"0"},{"FILE":"3637863","OBJECT_TYPE":"PAYLOAD","REF_FRAME":"TEME","MEAN_MOTION":"15.08852771","LAUNCH_DATE":"2022-01-19","MEAN_ELEMENT_THEORY":"SGP4","NORAD_CAT_ID":"51122","REV_AT_EPOCH":"4364","PERIOD":"95.437","CENTER_NAME":"EARTH","ARG_OF_PERICENTER":"33.3171","COUNTRY_CODE":"US","DECAY_DATE":null,"TLE_LINE1":"1 51122U 22005U   22302.69369877 -.00000877  00000-0 -36975-4 0  9992","ECCENTRICITY":"0.00019980","MEAN_MOTION_DDOT":"0.0000000000000","OBJECT_NAME":"STARLINK-3373","MEAN_MOTION_DOT":"-0.00000877","CLASSIFICATION_TYPE":"U","TIME_SYSTEM":"UTC","PERIAPSIS":"538.324","OBJECT_ID":"2022-005U","BSTAR":"-0.00003697500000","INCLINATION":"53.2175","RCS_SIZE":"LARGE","EPHEMERIS_TYPE":"0","SITE":"AFETR","ELEMENT_SET_NO":"999","SEMIMAJOR_AXIS":"6917.841","RA_OF_ASC_NODE":"37.3367","GP_ID":"216477784","EPOCH":"2022-10-29T16:38:55.573728","MEAN_ANOMALY":"326.7947","TLE_LINE2":"2 51122  53.2175  37.3367 0001998  33.3171 326.7947 15.08852771 43649","APOAPSIS":"541.089"},{"OBJECT_NAME":"STARLINK-3392","MEAN_MOTION_DOT":"-0.00000634","MEAN_MOTION_DDOT":"0.0000000000000","TLE_LINE1":"1 51123U 22005V   22302.68633603 -.00000634  00000-0 -21713-4 0  9998","ECCENTRICITY":"0.00022540","COUNTRY_CODE":"US","DECAY_DATE":null,"INCLINATION":"53.2164","RCS_SIZE":"LARGE","PERIAPSIS":"538.162","BSTAR":"-0.00002171300000","OBJECT_ID":"2022-005V","TIME_SYSTEM":"UTC","CLASSIFICATION_TYPE":"U","SEMIMAJOR_AXIS":"6917.857","RA_OF_ASC_NODE":"37.3677","ELEMENT_SET_NO":"999","SITE":"AFETR","EPHEMERIS_TYPE":"0","APOAPSIS":"541.281","MEAN_ANOMALY":"315.3145","EPOCH":"2022-10-29T16:28:19.432992","TLE_LINE2":"2 51123  53.2164  37.3677 0002254  44.8029 315.3145 15.08847732 43642","GP_ID":"216478034","OBJECT_TYPE":"PAYLOAD","FILE":"3637863","MEAN_MOTION":"15.08847732","LAUNCH_DATE":"2022-01-19","REF_FRAME":"TEME","REV_AT_EPOCH":"4364","NORAD_CAT_ID":"51123","MEAN_ELEMENT_THEORY":"SGP4","ARG_OF_PERICENTER":"44.8029","CENTER_NAME":"EARTH","PERIOD":"95.437"},{"PERIOD":"95.437","ARG_OF_PERICENTER":"39.2332","CENTER_NAME":"EARTH","MEAN_ELEMENT_THEORY":"SGP4","REV_AT_EPOCH":"4350","NORAD_CAT_ID":"51124","REF_FRAME":"TEME","LAUNCH_DATE":"2022-01-19","MEAN_MOTION":"15.08856283","OBJECT_TYPE":"PAYLOAD","FILE":"3637863","GP_ID":"216478285","APOAPSIS":"541.171","TLE_LINE2":"2 51124  53.2187  47.4619 0002133  39.2332 320.8814 15.08856283 43507","MEAN_ANOMALY":"320.8814","EPOCH":"2022-10-29T15:55:12.204480","SITE":"AFETR","EPHEMERIS_TYPE":"0","SEMIMAJOR_AXIS":"6917.831","RA_OF_ASC_NODE":"47.4619","ELEMENT_SET_NO":"999","TIME_SYSTEM":"UTC","CLASSIFICATION_TYPE":"U","RCS_SIZE":"LARGE","INCLINATION":"53.2187","OBJECT_ID":"2022-005W","BSTAR":"0.00034875000000","PERIAPSIS":"538.220","ECCENTRICITY":"0.00021330","TLE_LINE1":"1 51124U 22005W   22302.66333570  .00005269  00000-0  34875-3 0  9996","COUNTRY_CODE":"US","DECAY_DATE":null,"MEAN_MOTION_DOT":"0.00005269","OBJECT_NAME":"STARLINK-3389","MEAN_MOTION_DDOT":"0.0000000000000"},{"MEAN_MOTION_DDOT":"0.0000000000000","OBJECT_NAME":"STARLINK-3387","MEAN_MOTION_DOT":"0.00001375","DECAY_DATE":null,"COUNTRY_CODE":"US","TLE_LINE1":"1 51125U 22005X   22302.71854176  .00001375  00000-0  10447-3 0  9996","ECCENTRICITY":"0.00023050","PERIAPSIS":"538.143","OBJECT_ID":"2022-005X","BSTAR":"0.00010447000000","INCLINATION":"53.2172","RCS_SIZE":"LARGE","CLASSIFICATION_TYPE":"U","TIME_SYSTEM":"UTC","ELEMENT_SET_NO":"999","SEMIMAJOR_AXIS":"6917.873","RA_OF_ASC_NODE":"47.2224","EPHEMERIS_TYPE":"0","SITE":"AFETR","EPOCH":"2022-10-29T17:14:42.008064","MEAN_ANOMALY":"318.3480","TLE_LINE2":"2 51125  53.2172  47.2224 0002305  41.7688 318.3480 15.08842415 43496","APOAPSIS":"541.333","GP_ID":"216478515","FILE":"3637863","OBJECT_TYPE":"PAYLOAD","MEAN_MOTION":"15.08842415","LAUNCH_DATE":"2022-01-19","REF_FRAME":"TEME","NORAD_CAT_ID":"51125","REV_AT_EPOCH":"4349","MEAN_ELEMENT_THEORY":"SGP4","CENTER_NAME":"EARTH","ARG_OF_PERICENTER":"41.7688","PERIOD":"95.437"},{"MEAN_ANOMALY":"318.1769","EPOCH":"2022-10-28T23:56:03.618240","TLE_LINE2":"2 51126  53.2191  50.4500 0002157  41.9388 318.1769 15.08844324 43405","APOAPSIS":"541.224","GP_ID":"216441225","ELEMENT_SET_NO":"999","SEMIMAJOR_AXIS":"6917.867","RA_OF_ASC_NODE":"50.4500","EPHEMERIS_TYPE":"0","SITE":"AFETR","PERIAPSIS":"538.240","OBJECT_ID":"2022-005Y","BSTAR":"-0.00004707000000","INCLINATION":"53.2191","RCS_SIZE":"LARGE","CLASSIFICATION_TYPE":"U","TIME_SYSTEM":"UTC","MEAN_MOTION_DDOT":"0.0000000000000","OBJECT_NAME":"STARLINK-3386","MEAN_MOTION_DOT":"-0.00001037","COUNTRY_CODE":"US","DECAY_DATE":null,"TLE_LINE1":"1 51126U 22005Y   22301.99726410 -.00001037  00000-0 -47070-4 0  9995","ECCENTRICITY":"0.00021570","CENTER_NAME":"EARTH","ARG_OF_PERICENTER":"41.9388","PERIOD":"95.437","NORAD_CAT_ID":"51126","REV_AT_EPOCH":"4340","MEAN_ELEMENT_THEORY":"SGP4","MEAN_MOTION":"15.08844324","LAUNCH_DATE":"2022-01-19","REF_FRAME":"TEME","FILE":"3637424","OBJECT_TYPE":"PAYLOAD"},{"PERIAPSIS":"538.286","BSTAR":"0.00017065000000","OBJECT_ID":"2022-005Z","INCLINATION":"53.2177","RCS_SIZE":"LARGE","CLASSIFICATION_TYPE":"U","TIME_SYSTEM":"UTC","MEAN_MOTION_DDOT":"0.0000000000000","OBJECT_NAME":"STARLINK-3370","MEAN_MOTION_DOT":"0.00002430","COUNTRY_CODE":"US","DECAY_DATE":null,"TLE_LINE1":"1 51127U 22005Z   22302.78845663  .00002430  00000-0  17065-3 0  9992","ECCENTRICITY":"0.00020600","MEAN_ANOMALY":"329.4667","EPOCH":"2022-10-29T18:55:22.652832","TLE_LINE2":"2 51127  53.2177  46.9060 0002060  30.6445 329.4667 15.08851180 43515","APOAPSIS":"541.136","GP_ID":"216477534","ELEMENT_SET_NO":"999","SEMIMAJOR_AXIS":"6917.846","RA_OF_ASC_NODE":"46.9060","EPHEMERIS_TYPE":"0","SITE":"AFETR","MEAN_MOTION":"15.08851180","LAUNCH_DATE":"2022-01-19","REF_FRAME":"TEME","FILE":"3637863","OBJECT_TYPE":"PAYLOAD","CENTER_NAME":"EARTH","ARG_OF_PERICENTER":"30.6445","PERIOD":"95.437","NORAD_CAT_ID":"51127","REV_AT_EPOCH":"4351","MEAN_ELEMENT_THEORY":"SGP4"}];
